[{"OBJECT_NAME":"KUIPER-00252","OBJECT_ID":"2025-301AA","EPOCH":"2026-03-09T22:00:01.999584","MEAN_MOTION":15.32961042,"ECCENTRICITY":0.00108625,"INCLINATION":51.8682,"RA_OF_ASC_NODE":64.6463,"ARG_OF_PERICENTER":55.9089,"MEAN_ANOMALY":330.8749,"EPHEMERIS_TYPE":0,"CLASSIFICATION_TYPE":"U","NORAD_CAT_ID":67157,"ELEMENT_SET_NO":999,"REV_AT_EPOCH":542,"BSTAR":-0.017504489,"MEAN_MOTION_DOT":-0.00529484,"MEAN_MOTION_DDOT":0},{"OBJECT_NAME":"STARLINK-36524","OBJECT_ID":"2026-008H","EPOCH":"2026-03-09T20:41:41.715168","MEAN_MOTION":15.27595859,"ECCENTRICITY":0.00024492,"INCLINATION":43.0011,"RA_OF_ASC_NODE":204.6815,"ARG_OF_PERICENTER":288.5037,"MEAN_ANOMALY":71.5549,"EPHEMERIS_TYPE":0,"CLASSIFICATION_TYPE":"U","NORAD_CAT_ID":67452,"ELEMENT_SET_NO":999,"REV_AT_EPOCH":959,"BSTAR":0.0015351124,"MEAN_MOTION_DOT":0.00042245,"MEAN_MOTION_DDOT":0}]
